NORAD_CAT_ID,OBJECT_NAME,OBJECT_TYPE,EPOCH,MEAN_MOTION,ECCENTRICITY,INCLINATION,RA_OF_ASC_NODE,ARG_OF_PERICENTER,MEAN_ANOMALY,BSTAR,MEAN_MOTION_DOT,MEAN_MOTION_DDOT,TLE_LINE0,TLE_LINE1,TLE_LINE2,SEMIMAJOR_AXIS,PERIOD,APOGEE,PERIGEE,DECAYED
49744.0,STARLINK-3231,PAYLOAD,2024-07-01 20:39:10,15.08825918,0.0001142,53.219,33.5807,96.5041,263.6081,7.6201e-05,9.25e-06,0.0,0 STARLINK-3231,1 49744U 21115W   24183.86053335  .00000925  00000-0  76201-4 0  9995,2 49744  53.2190  33.5807 0001142  96.5041 263.6081 15.08825918143673,6917.923,95.438,540.578,538.998,0.0
49744.0,STARLINK-3231,PAYLOAD,2024-07-02 14:08:24,15.08843024,0.0001181,53.2195,30.3089,101.4685,258.644,-4.8666e-05,-1.062e-05,0.0,0 STARLINK-3231,1 49744U 21115W   24184.58916849 -.00001062  00000-0 -48666-4 0  9992,2 49744  53.2195  30.3089 0001181 101.4685 258.6440 15.08843024142678,6917.871,95.437,540.553,538.919,0.0
49744.0,STARLINK-3231,PAYLOAD,2024-07-02 20:29:56,15.08845709,0.0001155,53.2196,29.1199,96.465,263.6474,-0.00013725,-2.472e-05,0.0,0 STARLINK-3231,1 49744U 21115W   24184.85412964 -.00002472  00000-0 -13725-3 0  9994,2 49744  53.2196  29.1199 0001155  96.4650 263.6474 15.08845709143826,6917.863,95.437,540.527,538.929,0.0
49744.0,STARLINK-3231,PAYLOAD,2024-07-03 20:20:43,15.08834265,0.0001043,53.2179,24.6593,79.0188,281.0922,8.252e-05,1.026e-05,0.0,0 STARLINK-3231,1 49744U 21115W   24185.84773123  .00001026  00000-0  82520-4 0  9993,2 49744  53.2179  24.6593 0001043  79.0188 281.0922 15.08834265142864,6917.898,95.438,540.484,539.041,0.0
49744.0,STARLINK-3231,PAYLOAD,2024-07-04 12:14:35,15.08835967,9.81e-05,53.2187,21.6922,92.0416,268.0689,0.00012387,1.684e-05,0.0,0 STARLINK-3231,1 49744U 21115W   24186.51013024  .00001684  00000-0  12387-3 0  9998,2 49744  53.2187  21.6922 0000981  92.0416 268.0689 15.08835967144075,6917.893,95.438,540.436,539.079,0.0
49744.0,STARLINK-3231,PAYLOAD,2024-07-04 20:11:31,15.08830213,0.0001071,53.2197,20.2041,99.2658,260.8456,5.5548e-05,5.96e-06,0.0,0 STARLINK-3231,1 49744U 21115W   24186.84133767  .00000596  00000-0  55548-4 0  9999,2 49744  53.2197  20.2041 0001071  99.2658 260.8456 15.08830213144128,6917.91,95.438,540.516,539.034,0.0
49744.0,STARLINK-3231,PAYLOAD,2024-07-04 23:22:17,15.08838783,0.0001006,53.2182,19.6043,85.0262,275.0845,0.00010626,1.404e-05,0.0,0 STARLINK-3231,1 49744U 21115W   24186.97381098  .00001404  00000-0  10626-3 0  9991,2 49744  53.2182  19.6043 0001006  85.0262 275.0845 15.08838783144140,6917.884,95.438,540.445,539.053,0.0
49744.0,STARLINK-3231,PAYLOAD,2024-07-05 05:43:49,15.08847594,0.0001045,53.2189,18.4151,77.3323,282.7786,0.00015376,2.161e-05,0.0,0 STARLINK-3231,1 49744U 21115W   24187.23876354  .00002161  00000-0  15376-3 0  9993,2 49744  53.2189  18.4151 0001045  77.3323 282.7786 15.08847594144182,6917.857,95.437,540.445,538.999,0.0
49744.0,STARLINK-3231,PAYLOAD,2024-07-05 20:02:18,15.08839284,0.0001137,53.2187,15.7389,77.0003,283.1116,3.8691e-05,3.28e-06,0.0,0 STARLINK-3231,1 49744U 21115W   24187.83493501  .00000328  00000-0  38691-4 0  9997,2 49744  53.2187  15.7389 0001137  77.0003 283.1116 15.08839284144276,6917.883,95.438,540.534,538.961,0.0
49744.0,STARLINK-3231,PAYLOAD,2024-07-05 21:37:41,15.08840619,0.0001211,53.2192,15.4434,85.478,274.6351,8.3622e-05,1.043e-05,0.0,0 STARLINK-3231,1 49744U 21115W   24187.90117318  .00001043  00000-0  83622-4 0  9993,2 49744  53.2192  15.4434 0001211  85.4780 274.6351 15.08840619143176,6917.878,95.438,540.581,538.906,0.0
49744.0,STARLINK-3231,PAYLOAD,2024-07-05 23:13:04,15.08845674,0.0001176,53.2191,15.1451,81.0288,279.0837,0.00010253,1.345e-05,0.0,0 STARLINK-3231,1 49744U 21115W   24187.96740969  .00001345  00000-0  10253-3 0  9997,2 49744  53.2191  15.1451 0001176  81.0288 279.0837 15.08845674144294,6917.863,95.437,540.542,538.915,0.0
49744.0,STARLINK-3231,PAYLOAD,2024-07-06 11:56:09,15.0884454,0.000231,53.2186,12.7687,86.0671,274.0585,0.00017801,2.546e-05,0.0,0 STARLINK-3231,1 49744U 21115W   24188.49733025  .00002546  00000-0  17801-3 0  9991,2 49744  53.2186  12.7687 0002310  86.0671 274.0585 15.08844540143266,6917.867,95.437,541.33,538.133,0.0
49744.0,STARLINK-3231,PAYLOAD,2024-07-06 19:53:05,15.08834743,0.000122,53.2192,11.2789,78.867,281.2459,4.7721e-06,-2.12e-06,0.0,0 STARLINK-3231,1 49744U 21115W   24188.82854097 -.00000212  00000-0  47721-5 0  9996,2 49744  53.2192  11.2789 0001220  78.8670 281.2459 15.08834743144420,6917.896,95.438,540.605,538.917,0.0
49744.0,STARLINK-3231,PAYLOAD,2024-07-06 21:28:28,15.08835709,0.0001302,53.2181,10.982,81.3066,278.8073,-2.2836e-05,-6.51e-06,0.0,0 STARLINK-3231,1 49744U 21115W   24188.89477560 -.00000651  00000-0 -22836-4 0  9996,2 49744  53.2181  10.9820 0001302  81.3066 278.8073 15.08835709143324,6917.894,95.438,540.659,538.858,0.0
49744.0,STARLINK-3231,PAYLOAD,2024-07-07 11:46:56,15.0884107,0.0001411,53.217,8.3078,81.999,278.1162,4.1559e-05,3.74e-06,0.0,0 STARLINK-3231,1 49744U 21115W   24189.49093493  .00000374  00000-0  41559-4 0  9995,2 49744  53.2170   8.3078 0001411  81.9990 278.1162 15.08841070144524,6917.877,95.437,540.718,538.766,0.0
49744.0,STARLINK-3231,PAYLOAD,2024-07-08 11:37:43,15.08844662,0.0001317,53.2177,3.845,114.3687,245.7442,0.000191,2.754e-05,0.0,0 STARLINK-3231,1 49744U 21115W   24190.48453397  .00002754  00000-0  19100-3 0  9999,2 49744  53.2177   3.8450 0001317 114.3687 245.7442 15.08844662143568,6917.866,95.437,540.642,538.82,0.0
49744.0,STARLINK-3231,PAYLOAD,2024-07-08 17:59:16,15.08840763,0.000138,53.2194,2.656,102.8756,257.239,0.00022356,3.272e-05,0.0,0 STARLINK-3231,1 49744U 21115W   24190.74949741  .00003272  00000-0  22356-3 0  9994,2 49744  53.2194   2.6560 0001380 102.8756 257.2390 15.08840763144711,6917.878,95.438,540.698,538.788,0.0
49744.0,STARLINK-3231,PAYLOAD,2024-07-09 14:39:17,15.0883851,0.0001431,53.2185,358.7914,94.4655,265.6501,5.3204e-05,5.59e-06,0.0,0 STARLINK-3231,1 49744U 21115W   24191.61061807  .00000559  00000-0  53204-4 0  9991,2 49744  53.2185 358.7914 0001431  94.4655 265.6501 15.08838510143735,6917.885,95.438,540.74,538.76,0.0
49744.0,STARLINK-3231,PAYLOAD,2024-07-09 17:50:03,15.08840933,0.0001414,53.2184,358.195,105.8419,254.2729,8.7605e-05,1.107e-05,0.0,0 STARLINK-3231,1 49744U 21115W   24191.74309635  .00001107  00000-0  87605-4 0  9991,2 49744  53.2184 358.1950 0001414 105.8419 254.2729 15.08840933143754,6917.878,95.437,540.721,538.764,0.0
49744.0,STARLINK-3231,PAYLOAD,2024-07-10 11:19:18,15.08843249,0.0001519,53.2193,354.9254,104.9981,255.1179,0.0001995,2.889e-05,0.0,0 STARLINK-3231,1 49744U 21115W   24192.47173729  .00002889  00000-0  19950-3 0  9990,2 49744  53.2193 354.9254 0001519 104.9981 255.1179 15.08843249144972,6917.87,95.437,540.786,538.685,0.0
49744.0,STARLINK-3231,PAYLOAD,2024-07-10 17:40:50,15.08844438,0.000139,53.2188,353.7363,97.7929,262.3221,0.00021327,3.108e-05,0.0,0 STARLINK-3231,1 49744U 21115W   24192.73669724  .00003108  00000-0  21327-3 0  9990,2 49744  53.2188 353.7363 0001390  97.7929 262.3221 15.08844438143903,6917.867,95.437,540.693,538.77,0.0
49744.0,STARLINK-3231,PAYLOAD,2024-07-11 14:20:51,15.08842352,0.000135,53.2187,349.8712,97.2686,262.8459,0.00016358,2.317e-05,0.0,0 STARLINK-3231,1 49744U 21115W   24193.59781778  .00002317  00000-0  16358-3 0  9998,2 49744  53.2187 349.8712 0001350  97.2686 262.8459 15.08842352144033,6917.873,95.437,540.672,538.804,0.0
49744.0,STARLINK-3231,PAYLOAD,2024-07-11 17:31:37,15.08841956,0.0001199,53.2178,349.2746,91.0156,269.0974,0.00011724,1.579e-05,0.0,0 STARLINK-3231,1 49744U 21115W   24193.73029756  .00001579  00000-0  11724-3 0  9996,2 49744  53.2178 349.2746 0001199  91.0156 269.0974 15.08841956144051,6917.874,95.437,540.569,538.91,0.0
49744.0,STARLINK-3231,PAYLOAD,2024-07-12 03:03:55,15.08854282,0.0001074,53.2179,347.4935,93.3238,266.7877,0.00030537,4.577e-05,0.0,0 STARLINK-3231,1 49744U 21115W   24194.12773091  .00004577  00000-0  30537-3 0  9992,2 49744  53.2179 347.4935 0001074  93.3238 266.7877 15.08854282145222,6917.837,95.437,540.445,538.959,0.0
49744.0,STARLINK-3231,PAYLOAD,2024-07-12 14:11:38,15.0883036,0.0001155,53.2159,345.4079,75.1899,284.9221,-0.00014293,-2.561e-05,0.0,0 STARLINK-3231,1 49744U 21115W   24194.59142100 -.00002561  00000-0 -14293-3 0  9998,2 49744  53.2159 345.4079 0001155  75.1899 284.9221 15.08830360144188,6917.91,95.438,540.574,538.976,0.0
49744.0,STARLINK-3231,PAYLOAD,2024-07-12 17:22:24,15.08833616,0.0001242,53.2169,344.8177,96.2857,263.8277,-6.4958e-05,-1.321e-05,0.0,0 STARLINK-3231,1 49744U 21115W   24194.72390015 -.00001321  00000-0 -64958-4 0  9990,2 49744  53.2169 344.8177 0001242  96.2857 263.8277 15.08833616145316,6917.9,95.438,540.624,538.906,0.0
49744.0,STARLINK-3231,PAYLOAD,2024-07-13 02:54:43,15.08843751,0.0001351,53.2179,343.0325,90.7869,269.3278,0.00013932,1.93e-05,0.0,0 STARLINK-3231,1 49744U 21115W   24195.12133710  .00001930  00000-0  13932-3 0  9991,2 49744  53.2179 343.0325 0001351  90.7869 269.3278 15.08843751145375,6917.869,95.437,540.669,538.799,0.0
49744.0,STARLINK-3231,PAYLOAD,2024-07-13 14:02:26,15.08832396,0.000168,53.2173,340.9508,92.5923,267.5261,-1.999e-05,-6.06e-06,0.0,0 STARLINK-3231,1 49744U 21115W   24195.58502441 -.00000606  00000-0 -19990-4 0  9994,2 49744  53.2173 340.9508 0001680  92.5923 267.5261 15.08832396144334,6917.904,95.438,540.931,538.606,0.0
49744.0,STARLINK-3231,PAYLOAD,2024-07-13 18:48:35,15.08839213,0.0001438,53.2178,340.0554,84.261,275.8546,0.00013946,1.932e-05,0.0,0 STARLINK-3231,1 49744U 21115W   24195.78374258  .00001932  00000-0  13946-3 0  9994,2 49744  53.2178 340.0554 0001438  84.2610 275.8546 15.08839213145472,6917.883,95.438,540.743,538.753,0.0
49744.0,STARLINK-3231,PAYLOAD,2024-07-14 02:45:30,15.08855296,0.0001449,53.2176,338.5669,71.4302,288.6848,0.0004317,6.592e-05,0.0,0 STARLINK-3231,1 49744U 21115W   24196.11493662  .00006592  00000-0  43170-3 0  9992,2 49744  53.2176 338.5669 0001449  71.4302 288.6848 15.08855296145529,6917.834,95.437,540.701,538.696,0.0
